{
  "type": "Feature",
  "properties": {
    "districtId": "SO1",
    "name": "gemeinsamer Schulbezirk SO1",
    "sourceUrl": "https://geodaten.leipzig.de/public/projekte/schulweg/pdf/gemeinsamerSchulbezirk_SO1.pdf",
    "sourceVersion": "Stadt Leipzig Schulwegplan gemeinsamer Schulbezirk SO1 (Kartogr. Bearbeitung 06/2024)",
    "pdfRevision": "2024-06",
    "traceDate": "2026-04-21",
    "traceMethod": "Extracted the published SO1 boundary vector from the official PDF, then warped it onto the repo's existing SO1 footprint with school marker anchors for a first improved approximation.",
    "notes": [
      "This is a family-use screening polygon, not an official city GeoJSON dataset.",
      "The boundary detail now comes from the published Leipzig SO1 PDF, but the final georeferencing still remains approximate.",
      "Validate borderline addresses against the official PDF before making decisions."
    ],
    "schoolIds": ["august-bebel", "wilhelm-busch"],
    "schoolNames": ["August-Bebel-Schule", "Wilhelm-Busch-Schule"]
  },
  "geometry": {
    "type": "Polygon",
    "coordinates": [
      [
        [12.3712995, 51.3429998],
        [12.3731129, 51.3431363],
        [12.371456, 51.3456133],
        [12.3724357, 51.3454232],
        [12.3735, 51.346],
        [12.3765078, 51.3466446],
        [12.3744787, 51.3472266],
        [12.3778, 51.3477],
        [12.3805027, 51.3465321],
        [12.3802122, 51.3469045],
        [12.3828145, 51.3471241],
        [12.3813023, 51.3481341],
        [12.3860092, 51.3489634],
        [12.3926677, 51.3485417],
        [12.3937538, 51.3474871],
        [12.3919527, 51.3460876],
        [12.3947, 51.3446],
        [12.3998713, 51.3426145],
        [12.3995, 51.3425],
        [12.4036914, 51.3418147],
        [12.398086, 51.3416176],
        [12.4097, 51.3408],
        [12.4137427, 51.3399038],
        [12.4137638, 51.3389108],
        [12.4139639, 51.3391469],
        [12.4128, 51.3385],
        [12.4124121, 51.3388548],
        [12.412128, 51.3376442],
        [12.4147, 51.335],
        [12.4142867, 51.3356718],
        [12.414752, 51.3341869],
        [12.4143608, 51.3324845],
        [12.4124095, 51.3312194],
        [12.4129145, 51.3312052],
        [12.4125966, 51.3307079],
        [12.4096354, 51.3304785],
        [12.4092294, 51.3281328],
        [12.4069691, 51.327263],
        [12.4006226, 51.3277543],
        [12.3993151, 51.3275075],
        [12.3987, 51.327],
        [12.3963583, 51.3275486],
        [12.3928, 51.3272],
        [12.3875496, 51.3284504],
        [12.3864, 51.328],
        [12.381, 51.3291],
        [12.3780362, 51.3288416],
        [12.3792673, 51.329328],
        [12.3755526, 51.3315741],
        [12.3734, 51.334],
        [12.3707561, 51.3357413],
        [12.3714887, 51.3361435],
        [12.3702815, 51.3366006],
        [12.3721, 51.3382],
        [12.3722895, 51.3397969],
        [12.3712995, 51.3429998]
      ]
    ]
  }
}
